ONEWEB-0012             
1 44057U 19010A   26194.62410688  .00000029  00000+0  41454-4 0  9990
2 44057  87.9080 223.5335 0001866  82.5195 277.6147 13.16594070355045
ONEWEB-0010             
1 44058U 19010B   26194.49746135 -.00000046  00000+0 -15381-3 0  9995
2 44058  87.9080 223.5549 0002279 101.0121 259.1266 13.16593268355076
ONEWEB-0008             
1 44059U 19010C   26194.59878691  .00000078  00000+0  16984-3 0  9993
2 44059  87.9080 223.5296 0002127  88.6821 271.4554 13.16593362355202
ONEWEB-0007             
1 44060U 19010D   26194.73094059 -.00000094  00000+0 -28387-3 0  9999
2 44060  87.8983 253.9324 0001936 105.0331 255.1014 13.15548223354867
ONEWEB-0006             
1 44061U 19010E   26194.65883178 -.00000087  00000+0 -26610-3 0  9998
2 44061  87.8999 253.9130 0002227  96.9712 263.1671 13.15550822354906
ONEWEB-0011             
1 44062U 19010F   26194.70319972  .00000082  00000+0  18497-3 0  9998
2 44062  87.9003 253.9142 0002264  96.3091 263.8297 13.15549394354905
ONEWEB-0013             
1 45131U 20008A   26194.60816916 -.00000350  00000+0 -10536-2 0  9999
2 45131  87.8484  47.4905 0001012  60.1517 299.9710 13.09455308309522
ONEWEB-0017             
1 45132U 20008B   26194.57216633 -.00000610  00000+0 -17825-2 0  9993
2 45132  87.8814  31.0101 0001980  92.2395 267.8959 13.10374116311409
ONEWEB-0020             
1 45133U 20008C   26194.54162937  .00000662  00000+0  18596-2 0  9999
2 45133  87.8815  31.0144 0001774  84.5692 275.5637 13.10371196311799
ONEWEB-0021             
1 45134U 20008D   26194.55688112 -.00000043  00000+0 -16065-3 0  9994
2 45134  87.8806  31.0265 0001757  92.9440 267.1889 13.10369318312104
ONEWEB-0023             
1 45136U 20008F   26194.56790604 -.00000506  00000+0 -14849-2 0  9998
2 45136  87.8817  31.0083 0001841  82.9957 277.1380 13.10370139311538
ONEWEB-0024             
1 45137U 20008G   26194.54006213  .00000678  00000+0  19062-2 0  9993
2 45137  87.8826  31.0077 0001858  91.9985 268.1355 13.10371454311691
ONEWEB-0025             
1 45138U 20008H   26194.53979043  .00000663  00000+0  18624-2 0  9990
2 45138  87.8827  30.9979 0002232  81.5604 278.5776 13.10371253312029
ONEWEB-0026             
1 45139U 20008J   26194.55725338  .00000285  00000+0  76843-3 0  9997
2 45139  87.8883  15.8163 0001992  91.0029 269.1327 13.11418330314566
ONEWEB-0028             
1 45140U 20008K   26194.53265962 -.00000552  00000+0 -15931-2 0  9998
2 45140  87.8879  15.8292 0001404  83.1918 276.9370 13.11416383312077
ONEWEB-0032             
1 45141U 20008L   26194.49764060 -.00000609  00000+0 -17813-2 0  9991
2 45141  87.8816  31.0269 0001476  74.6434 285.4857 13.10373299311745
ONEWEB-0033             
1 45142U 20008M   26194.54840929  .00000364  00000+0  10053-2 0  9992
2 45142  87.8810  31.0225 0002211  96.7095 263.4284 13.10369480311666
ONEWEB-0035             
1 45143U 20008N   26194.56890595 -.00000566  00000+0 -16564-2 0  9998
2 45143  87.8813  31.0121 0001804  90.0620 270.0714 13.10375503311398
ONEWEB-0036             
1 45144U 20008P   26194.54660607  .00000497  00000+0  13861-2 0  9994
2 45144  87.8825  31.0332 0001724  83.5623 276.5701 13.10371269311816
ONEWEB-0038             
1 45145U 20008Q   26194.49127223  .00000559  00000+0  15406-2 0  9997
2 45145  87.8897  15.8425 0001933 144.5184 215.6073 13.11416786313779
ONEWEB-0039             
1 45146U 20008R   26194.55180336  .00000202  00000+0  54369-3 0  9996
2 45146  87.8814  31.0133 0001327  78.0399 282.0877 13.10369018311616
ONEWEB-0040             
1 45147U 20008S   26194.62136977  .00000544  00000+0  15210-2 0  9997
2 45147  87.8812  31.0095 0001895  76.9005 283.2333 13.10369930311324
ONEWEB-0043             
1 45149U 20008U   26194.54685513  .00000404  00000+0  11218-2 0  9994
2 45149  87.8817  31.0134 0001341  78.4594 281.6683 13.10372459311635
ONEWEB-0044             
1 45150U 20008V   26194.49920249 -.00000637  00000+0 -18613-2 0  9994
2 45150  87.8823  31.0248 0001738  84.1494 275.9831 13.10375655311927
ONEWEB-0045             
1 45151U 20008W   26194.86752887  .00000368  00000+0  10030-2 0  9991
2 45151  87.8890  15.7484 0001714  90.9288 269.2037 13.11417589313901
ONEWEB-0047             
1 45152U 20008X   26194.56861654 -.00000511  00000+0 -15000-2 0  9996
2 45152  87.8818  31.0098 0001880  94.9357 265.1985 13.10370857311651
ONEWEB-0048             
1 45153U 20008Y   26194.56368198 -.00000308  00000+0 -91948-3 0  9992
2 45153  87.8814  31.0306 0001695  90.7999 269.3323 13.10371198311268
ONEWEB-0049             
1 45154U 20008Z   26194.56691411 -.00000469  00000+0 -13799-2 0  9995
2 45154  87.8810  31.0186 0001931  75.5832 284.5509 13.10370564311486
ONEWEB-0051             
1 45155U 20008AA  26194.56064793  .00000442  00000+0  12114-2 0  9992
2 45155  87.8882  15.8144 0001791  87.6468 272.4864 13.11419080314541
ONEWEB-0052             
1 45156U 20008AB  26194.51122578 -.00000247  00000+0 -74316-3 0  9992
2 45156  87.8823  31.0175 0001805  74.7357 285.3970 13.10377564311380
