OBJECT_NAME,OBJECT_ID,EPOCH,MEAN_MOTION,ECCENTRICITY,INCLINATION,RA_OF_ASC_NODE,ARG_OF_PERICENTER,MEAN_ANOMALY,EPHEMERIS_TYPE,CLASSIFICATION_TYPE,NORAD_CAT_ID,ELEMENT_SET_NO,REV_AT_EPOCH,BSTAR,MEAN_MOTION_DOT,MEAN_MOTION_DDOT
ONEWEB-0012,2019-010A,2026-07-13T14:58:42.834432,13.16594070,.0001866,87.9080,223.5335,82.5195,277.6147,0,U,44057,999,35504,.41454E-4,.29E-6,0
ONEWEB-0010,2019-010B,2026-07-13T11:56:20.660640,13.16593268,.00022792,87.9080,223.5549,101.0121,259.1266,0,U,44058,999,35507,-.15380996E-3,-.46E-6,0
ONEWEB-0008,2019-010C,2026-07-13T14:22:15.189024,13.16593362,.0002127,87.9080,223.5296,88.6821,271.4554,0,U,44059,999,35520,.16984E-3,.78E-6,0
ONEWEB-0007,2019-010D,2026-07-13T17:32:33.266976,13.15548223,.0001936,87.8983,253.9324,105.0331,255.1014,0,U,44060,999,35486,-.28387E-3,-.94E-6,0
ONEWEB-0006,2019-010E,2026-07-13T15:48:43.065792,13.15550822,.0002227,87.8999,253.9130,96.9712,263.1671,0,U,44061,999,35490,-.2661E-3,-.87E-6,0
ONEWEB-0011,2019-010F,2026-07-13T16:52:36.455808,13.15549394,.0002264,87.9003,253.9142,96.3091,263.8297,0,U,44062,999,35490,.18497E-3,.82E-6,0
ONEWEB-0013,2020-008A,2026-07-13T14:35:45.815424,13.09455308,.0001012,87.8484,47.4905,60.1517,299.9710,0,U,45131,999,30952,-.10536E-2,-.35E-5,0
ONEWEB-0017,2020-008B,2026-07-13T13:43:55.170912,13.10374116,.000198,87.8814,31.0101,92.2395,267.8959,0,U,45132,999,31140,-.17825E-2,-.61E-5,0
ONEWEB-0020,2020-008C,2026-07-13T12:59:56.777568,13.10371196,.00017746,87.8815,31.0144,84.5692,275.5637,0,U,45133,999,31179,.18596209E-2,.662E-5,0
ONEWEB-0021,2020-008D,2026-07-13T13:21:54.528768,13.10369318,.0001757,87.8806,31.0265,92.9440,267.1889,0,U,45134,999,31210,-.16065E-3,-.43E-6,0
ONEWEB-0023,2020-008F,2026-07-13T13:37:47.081856,13.10370139,.0001841,87.8817,31.0083,82.9957,277.1380,0,U,45136,999,31153,-.14849E-2,-.506E-5,0
ONEWEB-0024,2020-008G,2026-07-13T12:57:41.368032,13.10371454,.0001858,87.8826,31.0077,91.9985,268.1355,0,U,45137,999,31169,.19062E-2,.678E-5,0
ONEWEB-0025,2020-008H,2026-07-13T12:57:17.893152,13.10371253,.00022324,87.8827,30.9979,81.5604,278.5776,0,U,45138,999,31202,.18623699E-2,.663E-5,0
ONEWEB-0026,2020-008J,2026-07-13T13:22:26.692032,13.11418330,.0001992,87.8883,15.8163,91.0029,269.1327,0,U,45139,999,31456,.76843E-3,.285E-5,0
ONEWEB-0028,2020-008K,2026-07-13T12:47:01.791168,13.11416383,.0001404,87.8879,15.8292,83.1918,276.9370,0,U,45140,999,31207,-.15931E-2,-.552E-5,0
ONEWEB-0032,2020-008L,2026-07-13T11:56:36.147840,13.10373299,.00014766,87.8816,31.0269,74.6434,285.4857,0,U,45141,999,31174,-.17813383E-2,-.609E-5,0
ONEWEB-0033,2020-008M,2026-07-13T13:09:42.562656,13.10369480,.0002211,87.8810,31.0225,96.7095,263.4284,0,U,45142,999,31166,.10053E-2,.364E-5,0
ONEWEB-0035,2020-008N,2026-07-13T13:39:13.474080,13.10375503,.0001804,87.8813,31.0121,90.0620,270.0714,0,U,45143,999,31139,-.16564E-2,-.566E-5,0
ONEWEB-0036,2020-008P,2026-07-13T13:07:06.764448,13.10371269,.0001724,87.8825,31.0332,83.5623,276.5701,0,U,45144,999,31181,.1386146E-2,.497E-5,0
ONEWEB-0038,2020-008Q,2026-07-13T11:47:25.920672,13.11416786,.00019331,87.8897,15.8425,144.5184,215.6073,0,U,45145,999,31377,.1540629E-2,.559E-5,0
ONEWEB-0039,2020-008R,2026-07-13T13:14:35.810304,13.10369018,.0001327,87.8814,31.0133,78.0399,282.0877,0,U,45146,999,31161,.54369E-3,.202E-5,0
ONEWEB-0040,2020-008S,2026-07-13T14:54:46.348128,13.10369930,.0001895,87.8812,31.0095,76.9005,283.2333,0,U,45147,999,31132,.1521E-2,.544E-5,0
ONEWEB-0043,2020-008U,2026-07-13T13:07:28.283232,13.10372459,.0001341,87.8817,31.0134,78.4594,281.6683,0,U,45149,999,31163,.11218E-2,.404E-5,0
ONEWEB-0044,2020-008V,2026-07-13T11:58:51.095136,13.10375655,.00017383,87.8823,31.0248,84.1494,275.9831,0,U,45150,999,31192,-.18612656E-2,-.637E-5,0
ONEWEB-0045,2020-008W,2026-07-13T20:49:14.494368,13.11417589,.0001714,87.8890,15.7484,90.9288,269.2037,0,U,45151,999,31390,.1003E-2,.368E-5,0
ONEWEB-0047,2020-008X,2026-07-13T13:38:48.469056,13.10370857,.000188,87.8818,31.0098,94.9357,265.1985,0,U,45152,999,31165,-.15E-2,-.511E-5,0
ONEWEB-0048,2020-008Y,2026-07-13T13:31:42.123072,13.10371198,.0001695,87.8814,31.0306,90.7999,269.3323,0,U,45153,999,31126,-.91948E-3,-.308E-5,0
ONEWEB-0049,2020-008Z,2026-07-13T13:36:21.379104,13.10370564,.0001931,87.8810,31.0186,75.5832,284.5509,0,U,45154,999,31148,-.13799E-2,-.469E-5,0
ONEWEB-0051,2020-008AA,2026-07-13T13:27:19.981152,13.11419080,.0001791,87.8882,15.8144,87.6468,272.4864,0,U,45155,999,31454,.12114E-2,.442E-5,0
ONEWEB-0052,2020-008AB,2026-07-13T12:16:09.907392,13.10377564,.00018052,87.8823,31.0175,74.7357,285.3970,0,U,45156,999,31138,-.74316057E-3,-.247E-5,0
